[{"OBJECT_NAME":"COSMOS 2494 (SKRL-756 2)","OBJECT_ID":"2013-078B","EPOCH":"2026-03-09T22:07:38.657280","MEAN_MOTION":15.04216116,"ECCENTRICITY":0.00160459,"INCLINATION":82.4161,"RA_OF_ASC_NODE":348.0656,"ARG_OF_PERICENTER":176.5861,"MEAN_ANOMALY":183.5478,"EPHEMERIS_TYPE":0,"CLASSIFICATION_TYPE":"U","NORAD_CAT_ID":39491,"ELEMENT_SET_NO":999,"REV_AT_EPOCH":66388,"BSTAR":0.0003906904,"MEAN_MOTION_DOT":5.469e-5,"MEAN_MOTION_DDOT":0},{"OBJECT_NAME":"STARLINK-35174","OBJECT_ID":"2025-207Z","EPOCH":"2026-03-09T17:24:39.222144","MEAN_MOTION":15.05689223,"ECCENTRICITY":7.935e-5,"INCLINATION":97.6027,"RA_OF_ASC_NODE":138.6483,"ARG_OF_PERICENTER":94.3438,"MEAN_ANOMALY":265.7879,"EPHEMERIS_TYPE":0,"CLASSIFICATION_TYPE":"U","NORAD_CAT_ID":65615,"ELEMENT_SET_NO":999,"REV_AT_EPOCH":2826,"BSTAR":0.00078086842,"MEAN_MOTION_DOT":0.00011236,"MEAN_MOTION_DDOT":0}]
